[{"OBJECT_NAME":"STARLINK-31359","OBJECT_ID":"2024-027Q","EPOCH":"2026-03-09T20:38:17.799936","MEAN_MOTION":15.30181732,"ECCENTRICITY":0.00012847,"INCLINATION":53.1579,"RA_OF_ASC_NODE":270.3947,"ARG_OF_PERICENTER":99.4481,"MEAN_ANOMALY":260.6665,"EPHEMERIS_TYPE":0,"CLASSIFICATION_TYPE":"U","NORAD_CAT_ID":58945,"ELEMENT_SET_NO":999,"REV_AT_EPOCH":11790,"BSTAR":5.5195127e-5,"MEAN_MOTION_DOT":1.275e-5,"MEAN_MOTION_DDOT":0},{"OBJECT_NAME":"CZ-6A DEB","OBJECT_ID":"2022-151QV","EPOCH":"2026-03-09T04:36:08.895168","MEAN_MOTION":15.24642942,"ECCENTRICITY":0.00273347,"INCLINATION":98.639,"RA_OF_ASC_NODE":154.2763,"ARG_OF_PERICENTER":174.5721,"MEAN_ANOMALY":185.5815,"EPHEMERIS_TYPE":0,"CLASSIFICATION_TYPE":"U","NORAD_CAT_ID":54908,"ELEMENT_SET_NO":999,"REV_AT_EPOCH":17373,"BSTAR":0.0098290719,"MEAN_MOTION_DOT":0.00253193,"MEAN_MOTION_DDOT":0}]
